1 11416U 79057A   79178.70621363 -.00000019  00000-0  00000-0 0    16
2 11416  98.7565 207.5771 0013961 290.0938  68.6705 14.22643566    06
1 11416U 79057A   79178.70621363 -.00000019  00000-0  00000-0 0    16
2 11416  98.7565 207.5771 0013961 290.0938  68.6705 14.22643566    06
1 11416U 79057A   79178.70651278  .00000000  00000-0  00000-0 0    13
2 11416  98.7735 207.5509 0048143 287.5888  72.2079 14.29664707    12
1 11416U 79057A   79178.70651278  .00000000  00000-0  00000-0 0    13
2 11416  98.7735 207.5509 0048143 287.5888  72.2079 14.29664707    12
1 11416U 79057A   79178.70651278  .00000000  00000-0  00000-0 0    13
2 11416  98.7735 207.5509 0048143 287.5888  72.2079 14.29664680    12
1 11416U 79057A   79178.91752047  .00000926  00000-0  00000-0 0    31
2 11416  98.7392 207.8071 0011227 280.8958  79.1177 14.22139740    40
1 11416U 79057A   79178.91752047  .00000926  00000-0  00000-0 0    31
2 11416  98.7392 207.8071 0011227 280.8958  79.1177 14.22139740    40
1 11416U 79057A   79178.91752048  .00000926  00000-0  00000-0 0    32
2 11416  98.7392 207.8071 0011227 280.8958  79.1177 14.22139703    49
1 11416U 79057A   79183.84253155  .00005659  00000-0  00000-0 0    55
2 11416  98.7560 212.6963 0010459 263.4436  96.2360 14.22115648   747
1 11416U 79057A   79183.84253155  .00005659  00000-0  00000-0 0    55
2 11416  98.7560 212.6963 0010459 263.4436  96.2360 14.22115612   748
1 11416U 79057A   79185.17937736 -.00004844  00000-0  00000-0 0    64
2 11416  98.7478 214.0118 0010388 259.5987 100.2614 14.22101537   932
1 11416U 79057A   79185.17937736 -.00004844  00000-0  00000-0 0    64
2 11416  98.7478 214.0118 0010388 259.5987 100.2614 14.22101498   938
1 11416U 79057A   79186.02370487 -.00004106  00000-0 -18441-2 0    76
2 11416  98.7593 214.8681 0011307 251.1024 108.8825 14.22089170  1055
1 11416U 79057A   79186.02370487 -.00004106  00000-0  08441-3 0    75
2 11416  98.7593 214.8681 0011307 251.1024 108.8825 14.22089195  1052
1 11416U 79057A   79192.63735006 -.00012875  00000-0  08091-3 0   209
2 11416  98.7502 221.4142 0010843 240.2135 119.8001 14.22100639  1981
1 11416U 79057A   79192.63735006 -.00012875  00000-0 -58091-2 0   204
2 11416  98.7502 221.4142 0010843 240.2135 119.8001 14.22100608  1987
1 11416U 79057A   79192.77806549 -.00046535  00000-0 -21017-1 0   218
2 11416  98.7504 221.5540 0011474 239.1602 120.8390 14.22071621  2008
1 11416U 79057A   79192.77806549 -.00046535  00000-0  01017-2 0   216
2 11416  98.7504 221.5540 0011474 239.1602 120.8390 14.22071648  2007
1 11416U 79057A   79193.34093334  .00018122  00000-0  01865-3 0   133
2 11416  98.7519 222.1101 0011259 238.1247 121.9227 14.22124577  2087
1 11416U 79057A   79193.34093335  .00018122  00000-0  81865-2 0   131
2 11416  98.7519 222.1101 0011259 238.1247 121.9227 14.22124565  2084
1 11416U 79057A   79193.83343146  .00000736  00000-0  04062-4 0   142
2 11416  98.7478 222.6012 0011014 232.6741 127.3445 14.22111416  2152
1 11416U 79057A   79193.83343146  .00000736  00000-0  34062-3 0   144
2 11416  98.7478 222.6012 0011014 232.6741 127.3445 14.22111458  2158
1 11416U 79057A   79194.25557796  .00000913  00000-0  02016-4 0   152
2 11416  98.7480 223.0202 0010992 231.8635 128.1574 14.22112465  2212
1 11416U 79057A   79194.25557796  .00000913  00000-0  02016-4 0   152
2 11416  98.7480 223.0202 0010992 231.8635 128.1574 14.22112465  2212
1 11416U 79057A   79194.25557796  .00000913  00000-0  42016-3 0   155
2 11416  98.7480 223.0202 0010992 231.8635 128.1574 14.22112512  2215
1 11416U 79057A   79195.80344763 -.00002842  00000-0  02787-3 0   240
2 11416  98.7457 224.5602 0011691 225.4321 134.5800 14.22117805  2423
1 11416U 79057A   79195.80344763 -.00002842  00000-0 -12787-2 0   241
2 11416  98.7457 224.5602 0011691 225.4321 134.5800 14.22117791  2427
1 11416U 79057A   79197.91388600  .00316530  00000-0  12685+0 0   180
2 11416  98.7508 226.7021 0010869 197.8298 273.1150 14.28276712  2731
1 11416U 79057A   79197.94183336 -.00009356  00000-0 -42360-2 0   174
2 11416  98.7455 226.6674 0010751 225.9207 271.8025 14.21909787  2732
1 11416U 79057A   79198.31260259  .00000414  00000-0  19521-3 0   196
2 11416  98.7481 227.0457 0011388 219.9385  18.7168 14.22113450  2788
1 11416U 79057A   79198.31260259  .00000414  00000-0  09521-4 0   196
2 11416  98.7481 227.0457 0011388 219.9385  18.7168 14.22113419  2783
1 11416U 79057A   79199.18154745  .00001337  00000-0  61157-3 0   203
2 11416  98.7476 227.9095 0011483 216.4196 148.4213 14.22106963  2904
1 11416U 79057A   79199.18154745  .00001337  00000-0  01157-4 0   208
2 11416  98.7476 227.9095 0011483 216.4196 148.4213 14.22106934  2902
1 11416U 79057A   79205.09065005  .00000295  00000-0  14180-3 0   218
2 11416  98.7480 233.7709 0011590 198.4187 161.6574 14.22117176  3742
1 11416U 79057A   79205.09065005  .00000295  00000-0  04180-4 0   218
2 11416  98.7480 233.7709 0011590 198.4187 161.6574 14.22117138  3740
1 11416U 79057A   79205.58315329 -.00005763  00000-0 -25969-2 0   223
2 11416  98.7474 234.2632 0011929 197.2004 162.8788 14.22113142  3814
1 11416U 79057A   79205.58315329 -.00005763  00000-0  05969-3 0   221
2 11416  98.7474 234.2632 0011929 197.2004 162.8788 14.22113132  3813
1 11416U 79057A   79206.56816417  .00000008  00000-0  05041-6 0   235
2 11416  98.7470 235.2385 0011706 193.6986 166.4173 14.22116184  3950
1 11416U 79057A   79206.56816417  .00000008  00000-0  05041-6 0   235
2 11416  98.7470 235.2385 0011706 193.6986 166.4173 14.22116184  3950
1 11416U 79057A   79206.56816417  .00000008  00000-0  75041-5 0   231
2 11416  98.7470 235.2385 0011706 193.6986 166.4173 14.22116176  3951
1 11416U 79057A   79207.27197177  .00001034  00000-0  07464-4 0   250
2 11416  98.7469 235.9367 0012035 191.2609 170.0636 14.22120380  4057
1 11416U 79057A   79207.27197177  .00001034  00000-0  47464-3 0   253
2 11416  98.7469 235.9367 0012035 191.2609 170.0636 14.22120356  4050
1 11416U 79057A   79207.62352103  .00005034  00000-0  22797-2 0   260
2 11416  98.7434 236.2821 0012141 189.3176 170.7902 14.22119640  4109
1 11416U 79057A   79207.62352103  .00005034  00000-0  02797-3 0   269
2 11416  98.7434 236.2821 0012141 189.3176 170.7902 14.22119617  4103
1 11416U 79057A   79208.32709038  .00000528  00000-0  24615-3 0   277
2 11416  98.7464 236.9830 0011930 188.9290 171.1577 14.22119512  4208
1 11416U 79057A   79208.32709038  .00000528  00000-0  04615-4 0   276
2 11416  98.7464 236.9830 0011930 188.9290 171.1577 14.22119522  4209
1 11416U 79057A   79209.45280949  .00000671  00000-0  01130-4 0   285
2 11416  98.7465 238.0986 0012040 185.8933 174.2199 14.22121906  4379
1 11416U 79057A   79209.45280949  .00000671  00000-0  01130-4 0   285
2 11416  98.7465 238.0986 0012040 185.8933 174.2199 14.22121906  4379
1 11416U 79057A   79209.45280949  .00000671  00000-0  31130-3 0   287
2 11416  98.7465 238.0986 0012040 185.8933 174.2199 14.22121915  4379
1 11416U 79057A   79209.52316488  .00004567  00000-0  00686-3 0   317
2 11416  98.7484 238.1692 0012240 184.0532 176.0783 14.22133732  4383
1 11416U 79057A   79209.52316489  .00004567  00000-0  20686-2 0   319
2 11416  98.7484 238.1692 0012240 184.0532 176.0783 14.22133762  4386
1 11416U 79057A   79210.43780848  .00000423  00000-0  09917-4 0   295
2 11416  98.7465 239.0755 0012173 182.8661 177.2341 14.22121429  4514
1 11416U 79057A   79210.43780848  .00000423  00000-0  19917-3 0   295
2 11416  98.7465 239.0755 0012173 182.8661 177.2341 14.22121402  4515
1 11416U 79057A   79211.84495727  .00000411  00000-0  19315-3 0   301
2 11416  98.7440 240.4740 0012202 177.6771 182.4477 14.22122137  4812
1 11416U 79057A   79211.84495727  .00000411  00000-0  09315-4 0   301
2 11416  98.7440 240.4740 0012202 177.6771 182.4477 14.22122097  4817
1 11416U 79057A   79212.12638594  .00003775  00000-0  17112-2 0   335
2 11416  98.7446 240.7513 0012123 175.3994 184.8308 14.22142811  4857
1 11416U 79057A   79212.12638594  .00003775  00000-0  07112-3 0   335
2 11416  98.7446 240.7513 0012123 175.3994 184.8308 14.22142792  4855
1 11416U 79057A   79218.45853095  .00000441  00000-0  00675-4 0   382
2 11416  98.7454 247.0385 0013186 160.7773 199.4170 14.22124958  5757
1 11416U 79057A   79218.45853095  .00000441  00000-0  00675-4 0   382
2 11416  98.7454 247.0385 0013186 160.7773 199.4170 14.22124958  5757
1 11416U 79057A   79218.45853095  .00000441  00000-0  20675-3 0   383
2 11416  98.7454 247.0385 0013186 160.7773 199.4170 14.22124961  5751
1 11416U 79057A   79219.30242602  .00000342  00000-0  06186-4 0   320
2 11416  98.7461 247.8705 0012806 156.9320 201.2687 14.22126770  5773
1 11416U 79057A   79219.30242602  .00000342  00000-0  16186-3 0   320
2 11416  98.7461 247.8705 0012806 156.9320 201.2687 14.22126783  5777
1 11416U 79057A   79220.28750766  .00000289  00000-0  13858-3 0   349
2 11416  98.7476 248.8484 0012855 154.2889 204.3437 14.22126896  6013
1 11416U 79057A   79220.28750766  .00000289  00000-0  03858-4 0   349
2 11416  98.7476 248.8484 0012855 154.2889 204.3437 14.22126865  6019
1 11416U 79057A   79228.44920034  .00000254  00000-0  12228-3 0   355
2 11416  98.7483 256.9476 0013113 132.3570 227.8731 14.22132679  7175
1 11416U 79057A   79228.44920034  .00000254  00000-0  02228-4 0   355
2 11416  98.7483 256.9476 0013113 132.3570 227.8731 14.22132683  7170
1 11416U 79057A   79228.66027046 -.00001084  00000-0 -48499-3 0   364
2 11416  98.7475 257.1561 0013350 131.8793 228.3514 14.22130531  7202
1 11416U 79057A   79228.66027046 -.00001084  00000-0  08499-4 0   360
2 11416  98.7475 257.1561 0013350 131.8793 228.3514 14.22130489  7204
1 11416U 79057A   79229.01205448  .00000480  00000-0  02443-4 0   376
2 11416  98.7467 257.5042 0013187 131.1368 229.1017 14.22133350  7254
1 11416U 79057A   79229.01205448  .00000480  00000-0  22443-3 0   377
2 11416  98.7467 257.5042 0013187 131.1368 229.1017 14.22133350  7254
